NETSAT-3                
1 46505U 20068V   26065.46022348  .00023381  00000+0  60899-3 0  9995
2 46505  97.8679  64.0831 0005481  10.0463 350.0890 15.38870862299869
NETSAT-1                
1 46506U 20068W   26064.96192194  .00016960  00000+0  55280-3 0  9990
2 46506  97.8743  59.0235 0006288  30.7972 329.3636 15.31881118299488
NETSAT-2                
1 46507U 20068X   26065.42842524  .00027071  00000+0  64893-3 0  9997
2 46507  97.8653  65.2829 0004973  31.4292 328.7250 15.41375125299885
WILDTRACKCUBE-SIMBA     
1 47941U 21022K   26065.29297773  .08759150  26401-5  74904-3 0  9997
2 47941  97.3721 347.4784 0005874 201.7073 158.3978 16.39544551275308
GREENCUBE (IO-117)      
1 53109U 22080E   26065.15298404 -.00000003  00000+0  00000+0 0  9994
2 53109  70.1629 334.0832 0009028 311.9360  48.0530  6.42583089 85446
SITRO-AIS 5 (KATYS)     
1 57176U 23091L   26065.86233429  .00016718  00000+0  63191-3 0  9992
2 57176  97.5181 128.9146 0013419 104.1239 256.1491 15.26968814148717
SITRO-AIS 6 (CHIRKIN)   
1 57192U 23091AC  26065.89131718  .00009948  00000+0  40804-3 0  9994
2 57192  97.5187 128.5507 0014213 104.4356 255.8459 15.24356657148695
SITRO-AIS 8 (ANOKHIN)   
1 57193U 23091AD  26065.84863843  .00019050  00000+0  67182-3 0  9994
2 57193  97.5174 130.1078 0012595 101.7866 258.4787 15.29231704148795
SITRO-AIS 7 (FARTUSHNIY)
1 57194U 23091AE  26065.87539711  .00008482  00000+0  35101-3 0  9995
2 57194  97.5186 128.4071 0014062 105.2747 255.0045 15.24108374148689
SITRO-AIS 10 (BURDAEV)  
1 57199U 23091AK  26065.88377674  .00027478  00000+0  81936-3 0  9992
2 57199  97.5188 134.2370 0008318  83.7624 276.4565 15.34593980149052
SITRO-AIS 9 (SHCHUKIN)  
1 57201U 23091AM  26065.88131400  .00027235  00000+0  82165-3 0  9997
2 57201  97.5186 134.0356 0008544  83.6527 276.5689 15.34224594149047
SITRO-AIS 12 (SMIRENNIY)
1 57204U 23091AQ  26065.89006843  .00026388  00000+0  79024-3 0  9991
2 57204  97.5197 134.4516 0008209  78.8332 281.3833 15.34467542149061
SITRO-AIS 11 (SHEFFER)  
1 57208U 23091AU  26065.86387791  .00026314  00000+0  77964-3 0  9996
2 57208  97.5195 134.6137 0008077  79.1868 281.0283 15.34807565149075
SITRO-AIS 25            
1 59066U 24039R   26065.83729500  .00004723  00000+0  37599-3 0  9998
2 59066  95.3941 164.7904 0145667 326.4157  32.7897 14.92601037109455
SITRO-AIS 26            
1 59067U 24039S   26065.62419122  .00005434  00000+0  43405-3 0  9995
2 59067  95.3944 164.5617 0145952 327.6388  31.5946 14.92413001109414
SITRO-AIS 27            
1 59068U 24039T   26065.82344185  .00005516  00000+0  43695-3 0  9996
2 59068  95.3944 164.9245 0145005 325.7704  33.4237 14.92809277109469
