[{"OBJECT_NAME":"NETSAT-3","OBJECT_ID":"2020-068V","EPOCH":"2026-03-06T11:02:43.308672","MEAN_MOTION":15.38870862,"ECCENTRICITY":0.00054813,"INCLINATION":97.8679,"RA_OF_ASC_NODE":64.0831,"ARG_OF_PERICENTER":10.0463,"MEAN_ANOMALY":350.089,"EPHEMERIS_TYPE":0,"CLASSIFICATION_TYPE":"U","NORAD_CAT_ID":46505,"ELEMENT_SET_NO":999,"REV_AT_EPOCH":29986,"BSTAR":0.00060898681,"MEAN_MOTION_DOT":0.00023381,"MEAN_MOTION_DDOT":0},{"OBJECT_NAME":"NETSAT-1","OBJECT_ID":"2020-068W","EPOCH":"2026-03-05T23:05:10.055616","MEAN_MOTION":15.31881118,"ECCENTRICITY":0.00062889,"INCLINATION":97.8743,"RA_OF_ASC_NODE":59.0235,"ARG_OF_PERICENTER":30.7972,"MEAN_ANOMALY":329.3636,"EPHEMERIS_TYPE":0,"CLASSIFICATION_TYPE":"U","NORAD_CAT_ID":46506,"ELEMENT_SET_NO":999,"REV_AT_EPOCH":29948,"BSTAR":0.00055279957,"MEAN_MOTION_DOT":0.0001696,"MEAN_MOTION_DDOT":0},{"OBJECT_NAME":"NETSAT-2","OBJECT_ID":"2020-068X","EPOCH":"2026-03-06T10:16:55.940736","MEAN_MOTION":15.41375125,"ECCENTRICITY":0.00049734,"INCLINATION":97.8653,"RA_OF_ASC_NODE":65.2829,"ARG_OF_PERICENTER":31.4292,"MEAN_ANOMALY":328.725,"EPHEMERIS_TYPE":0,"CLASSIFICATION_TYPE":"U","NORAD_CAT_ID":46507,"ELEMENT_SET_NO":999,"REV_AT_EPOCH":29988,"BSTAR":0.00064892529,"MEAN_MOTION_DOT":0.00027071,"MEAN_MOTION_DDOT":0},{"OBJECT_NAME":"WILDTRACKCUBE-SIMBA","OBJECT_ID":"2021-022K","EPOCH":"2026-03-06T07:01:53.275872","MEAN_MOTION":16.39544551,"ECCENTRICITY":0.0005874,"INCLINATION":97.3721,"RA_OF_ASC_NODE":347.4784,"ARG_OF_PERICENTER":201.7073,"MEAN_ANOMALY":158.3978,"EPHEMERIS_TYPE":0,"CLASSIFICATION_TYPE":"U","NORAD_CAT_ID":47941,"ELEMENT_SET_NO":999,"REV_AT_EPOCH":27530,"BSTAR":0.00074904122,"MEAN_MOTION_DOT":0.0875915,"MEAN_MOTION_DDOT":2.64013e-6},{"OBJECT_NAME":"GREENCUBE (IO-117)","OBJECT_ID":"2022-080E","EPOCH":"2026-03-06T03:40:17.821056","MEAN_MOTION":6.42583089,"ECCENTRICITY":0.00090284,"INCLINATION":70.1629,"RA_OF_ASC_NODE":334.0832,"ARG_OF_PERICENTER":311.936,"MEAN_ANOMALY":48.053,"EPHEMERIS_TYPE":0,"CLASSIFICATION_TYPE":"U","NORAD_CAT_ID":53109,"ELEMENT_SET_NO":999,"REV_AT_EPOCH":8544,"BSTAR":0,"MEAN_MOTION_DOT":-3.0e-8,"MEAN_MOTION_DDOT":0},{"OBJECT_NAME":"SITRO-AIS 5 (KATYS)","OBJECT_ID":"2023-091L","EPOCH":"2026-03-06T20:41:45.682656","MEAN_MOTION":15.26968814,"ECCENTRICITY":0.0013419,"INCLINATION":97.5181,"RA_OF_ASC_NODE":128.9146,"ARG_OF_PERICENTER":104.1239,"MEAN_ANOMALY":256.1491,"EPHEMERIS_TYPE":0,"CLASSIFICATION_TYPE":"U","NORAD_CAT_ID":57176,"ELEMENT_SET_NO":999,"REV_AT_EPOCH":14871,"BSTAR":0.00063191,"MEAN_MOTION_DOT":0.00016718,"MEAN_MOTION_DDOT":0},{"OBJECT_NAME":"SITRO-AIS 6 (CHIRKIN)","OBJECT_ID":"2023-091AC","EPOCH":"2026-03-06T21:23:29.804352","MEAN_MOTION":15.24356657,"ECCENTRICITY":0.0014213,"INCLINATION":97.5187,"RA_OF_ASC_NODE":128.5507,"ARG_OF_PERICENTER":104.4356,"MEAN_ANOMALY":255.8459,"EPHEMERIS_TYPE":0,"CLASSIFICATION_TYPE":"U","NORAD_CAT_ID":57192,"ELEMENT_SET_NO":999,"REV_AT_EPOCH":14869,"BSTAR":0.00040804,"MEAN_MOTION_DOT":9.948e-5,"MEAN_MOTION_DDOT":0},{"OBJECT_NAME":"SITRO-AIS 8 (ANOKHIN)","OBJECT_ID":"2023-091AD","EPOCH":"2026-03-06T20:22:02.360352","MEAN_MOTION":15.29231704,"ECCENTRICITY":0.0012595,"INCLINATION":97.5174,"RA_OF_ASC_NODE":130.1078,"ARG_OF_PERICENTER":101.7866,"MEAN_ANOMALY":258.4787,"EPHEMERIS_TYPE":0,"CLASSIFICATION_TYPE":"U","NORAD_CAT_ID":57193,"ELEMENT_SET_NO":999,"REV_AT_EPOCH":14879,"BSTAR":0.00067182,"MEAN_MOTION_DOT":0.0001905,"MEAN_MOTION_DDOT":0},{"OBJECT_NAME":"SITRO-AIS 7 (FARTUSHNIY)","OBJECT_ID":"2023-091AE","EPOCH":"2026-03-06T21:00:34.310304","MEAN_MOTION":15.24108374,"ECCENTRICITY":0.0014062,"INCLINATION":97.5186,"RA_OF_ASC_NODE":128.4071,"ARG_OF_PERICENTER":105.2747,"MEAN_ANOMALY":255.0045,"EPHEMERIS_TYPE":0,"CLASSIFICATION_TYPE":"U","NORAD_CAT_ID":57194,"ELEMENT_SET_NO":999,"REV_AT_EPOCH":14868,"BSTAR":0.00035101,"MEAN_MOTION_DOT":8.482e-5,"MEAN_MOTION_DDOT":0},{"OBJECT_NAME":"SITRO-AIS 10 (BURDAEV)","OBJECT_ID":"2023-091AK","EPOCH":"2026-03-06T21:12:38.310336","MEAN_MOTION":15.3459398,"ECCENTRICITY":0.0008318,"INCLINATION":97.5188,"RA_OF_ASC_NODE":134.237,"ARG_OF_PERICENTER":83.7624,"MEAN_ANOMALY":276.4565,"EPHEMERIS_TYPE":0,"CLASSIFICATION_TYPE":"U","NORAD_CAT_ID":57199,"ELEMENT_SET_NO":999,"REV_AT_EPOCH":14905,"BSTAR":0.00081936,"MEAN_MOTION_DOT":0.00027478,"MEAN_MOTION_DDOT":0},{"OBJECT_NAME":"SITRO-AIS 9 (SHCHUKIN)","OBJECT_ID":"2023-091AM","EPOCH":"2026-03-06T21:09:05.529600","MEAN_MOTION":15.34224594,"ECCENTRICITY":0.0008544,"INCLINATION":97.5186,"RA_OF_ASC_NODE":134.0356,"ARG_OF_PERICENTER":83.6527,"MEAN_ANOMALY":276.5689,"EPHEMERIS_TYPE":0,"CLASSIFICATION_TYPE":"U","NORAD_CAT_ID":57201,"ELEMENT_SET_NO":999,"REV_AT_EPOCH":14904,"BSTAR":0.00082165,"MEAN_MOTION_DOT":0.00027235,"MEAN_MOTION_DDOT":0},{"OBJECT_NAME":"SITRO-AIS 12 (SMIRENNIY)","OBJECT_ID":"2023-091AQ","EPOCH":"2026-03-06T21:21:41.912352","MEAN_MOTION":15.34467542,"ECCENTRICITY":0.0008209,"INCLINATION":97.5197,"RA_OF_ASC_NODE":134.4516,"ARG_OF_PERICENTER":78.8332,"MEAN_ANOMALY":281.3833,"EPHEMERIS_TYPE":0,"CLASSIFICATION_TYPE":"U","NORAD_CAT_ID":57204,"ELEMENT_SET_NO":999,"REV_AT_EPOCH":14906,"BSTAR":0.00079024,"MEAN_MOTION_DOT":0.00026388,"MEAN_MOTION_DDOT":0},{"OBJECT_NAME":"SITRO-AIS 11 (SHEFFER)","OBJECT_ID":"2023-091AU","EPOCH":"2026-03-06T20:43:59.051424","MEAN_MOTION":15.34807565,"ECCENTRICITY":0.0008077,"INCLINATION":97.5195,"RA_OF_ASC_NODE":134.6137,"ARG_OF_PERICENTER":79.1868,"MEAN_ANOMALY":281.0283,"EPHEMERIS_TYPE":0,"CLASSIFICATION_TYPE":"U","NORAD_CAT_ID":57208,"ELEMENT_SET_NO":999,"REV_AT_EPOCH":14907,"BSTAR":0.00077964,"MEAN_MOTION_DOT":0.00026314,"MEAN_MOTION_DDOT":0},{"OBJECT_NAME":"SITRO-AIS 25","OBJECT_ID":"2024-039R","EPOCH":"2026-03-06T20:05:42.288000","MEAN_MOTION":14.92601037,"ECCENTRICITY":0.0145667,"INCLINATION":95.3941,"RA_OF_ASC_NODE":164.7904,"ARG_OF_PERICENTER":326.4157,"MEAN_ANOMALY":32.7897,"EPHEMERIS_TYPE":0,"CLASSIFICATION_TYPE":"U","NORAD_CAT_ID":59066,"ELEMENT_SET_NO":999,"REV_AT_EPOCH":10945,"BSTAR":0.00037599,"MEAN_MOTION_DOT":4.723e-5,"MEAN_MOTION_DDOT":0},{"OBJECT_NAME":"SITRO-AIS 26","OBJECT_ID":"2024-039S","EPOCH":"2026-03-06T14:58:50.121408","MEAN_MOTION":14.92413001,"ECCENTRICITY":0.01459529,"INCLINATION":95.3944,"RA_OF_ASC_NODE":164.5617,"ARG_OF_PERICENTER":327.6388,"MEAN_ANOMALY":31.5946,"EPHEMERIS_TYPE":0,"CLASSIFICATION_TYPE":"U","NORAD_CAT_ID":59067,"ELEMENT_SET_NO":999,"REV_AT_EPOCH":10941,"BSTAR":0.00043404708,"MEAN_MOTION_DOT":5.434e-5,"MEAN_MOTION_DDOT":0},{"OBJECT_NAME":"SITRO-AIS 27","OBJECT_ID":"2024-039T","EPOCH":"2026-03-06T19:45:45.375840","MEAN_MOTION":14.92809277,"ECCENTRICITY":0.0145005,"INCLINATION":95.3944,"RA_OF_ASC_NODE":164.9245,"ARG_OF_PERICENTER":325.7704,"MEAN_ANOMALY":33.4237,"EPHEMERIS_TYPE":0,"CLASSIFICATION_TYPE":"U","NORAD_CAT_ID":59068,"ELEMENT_SET_NO":999,"REV_AT_EPOCH":10946,"BSTAR":0.00043695,"MEAN_MOTION_DOT":5.516e-5,"MEAN_MOTION_DDOT":0}]
